{"type": "FeatureCollection", "features": [ {"type": "Feature", "properties": {"norad_id": 35441, "name": "COSMOS 2251 DEB", "group": "cosmos-2251-debris", "lat": 0.7435264678955649, "lon": -51.66752462787678, "alt_km": 711.5699101961472, "timestamp": "2025-12-07T11:27:50.403201+00:00", "meta": {"OBJECT_NAME": "COSMOS 2251 DEB", "OBJECT_ID": "1993-036AKK", "EPOCH": "2025-12-06T04:16:00.147072", "MEAN_MOTION": 14.62424677, "ECCENTRICITY": 0.00374671, "INCLINATION": 74.1332, "RA_OF_ASC_NODE": 310.5953, "ARG_OF_PERICENTER": 209.6577, "MEAN_ANOMALY": 150.2468, "EPHEMERIS_TYPE": 0, "CLASSIFICATION_TYPE": "U", "NORAD_CAT_ID": 35441, "ELEMENT_SET_NO": 999, "REV_AT_EPOCH": 87334, "BSTAR": 0.0026738741, "MEAN_MOTION_DOT": 0.00013668, "MEAN_MOTION_DDOT": 0}, "tle": {"line1": "1 35441U 93036AKK 25340.17777948  .00013668  00000+0  26739-2 0  9994", "line2": "2 35441  74.1332 310.5953 0037467 209.6577 150.2468 14.62424677873342"}}, "geometry": {"type": "Point", "coordinates": [-51.66752462787678, 0.7435264678955649]}}, {"type": "Feature", "properties": {"norad_id": 35442, "name": "COSMOS 2251 DEB", "group": "cosmos-2251-debris", "lat": -10.971954124253118, "lon": -67.23807660949353, "alt_km": 619.6926557720171, "timestamp": "2025-12-07T11:27:50.403210+00:00", "meta": {"OBJECT_NAME": "COSMOS 2251 DEB", "OBJECT_ID": "1993-036AKL", "EPOCH": "2025-12-06T15:11:28.207968", "MEAN_MOTION": 14.84048486, "ECCENTRICITY": 0.00042143, "INCLINATION": 74.0268, "RA_OF_ASC_NODE": 111.2533, "ARG_OF_PERICENTER": 115.5873, "MEAN_ANOMALY": 244.5741, "EPHEMERIS_TYPE": 0, "CLASSIFICATION_TYPE": "U", "NORAD_CAT_ID": 35442, "ELEMENT_SET_NO": 999, "REV_AT_EPOCH": 87262, "BSTAR": 0.0050286064, "MEAN_MOTION_DOT": 0.00042157, "MEAN_MOTION_DDOT": 0}, "tle": {"line1": "1 35442U 93036AKL 25340.63296537  .00042157  00000+0  50286-2 0  9995", "line2": "2 35442  74.0268 111.2533 0004214 115.5873 244.5741 14.84048486872623"}}, "geometry": {"type": "Point", "coordinates": [-67.23807660949353, -10.971954124253118]}}, {"type": "Feature", "properties": {"norad_id": 35443, "name": "COSMOS 2251 DEB", "group": "cosmos-2251-debris", "lat": -4.959647406109181, "lon": -19.166757565370645, "alt_km": 615.4425472020157, "timestamp": "2025-12-07T11:27:50.403221+00:00", "meta": {"OBJECT_NAME": "COSMOS 2251 DEB", "OBJECT_ID": "1993-036AKM", "EPOCH": "2025-12-06T06:35:54.030624", "MEAN_MOTION": 14.95936925, "ECCENTRICITY": 0.00736514, "INCLINATION": 73.9854, "RA_OF_ASC_NODE": 344.6974, "ARG_OF_PERICENTER": 128.494, "MEAN_ANOMALY": 232.2881, "EPHEMERIS_TYPE": 0, "CLASSIFICATION_TYPE": "U", "NORAD_CAT_ID": 35443, "ELEMENT_SET_NO": 999, "REV_AT_EPOCH": 86781, "BSTAR": 0.0060867495, "MEAN_MOTION_DOT": 0.0007268, "MEAN_MOTION_DDOT": 0}, "tle": {"line1": "1 35443U 93036AKM 25340.27493091  .00072680  00000+0  60867-2 0  9990", "line2": "2 35443  73.9854 344.6974 0073651 128.4940 232.2881 14.95936925867813"}}, "geometry": {"type": "Point", "coordinates": [-19.166757565370645, -4.959647406109181]}}, {"type": "Feature", "properties": {"norad_id": 35445, "name": "COSMOS 2251 DEB", "group": "cosmos-2251-debris", "lat": 14.275739029498311, "lon": -45.78788891079251, "alt_km": 603.603670886122, "timestamp": "2025-12-07T11:27:50.403231+00:00", "meta": {"OBJECT_NAME": "COSMOS 2251 DEB", "OBJECT_ID": "1993-036AKP", "EPOCH": "2025-12-06T07:25:17.154912", "MEAN_MOTION": 14.58941394, "ECCENTRICITY": 0.01435699, "INCLINATION": 74.0371, "RA_OF_ASC_NODE": 312.2612, "ARG_OF_PERICENTER": 40.8351, "MEAN_ANOMALY": 320.3464, "EPHEMERIS_TYPE": 0, "CLASSIFICATION_TYPE": "U", "NORAD_CAT_ID": 35445, "ELEMENT_SET_NO": 999, "REV_AT_EPOCH": 87235, "BSTAR": 0.0033112622, "MEAN_MOTION_DOT": 0.0001794, "MEAN_MOTION_DDOT": 0}, "tle": {"line1": "1 35445U 93036AKP 25340.30922633  .00017940  00000+0  33113-2 0  9997", "line2": "2 35445  74.0371 312.2612 0143569  40.8351 320.3464 14.58941394872356"}}, "geometry": {"type": "Point", "coordinates": [-45.78788891079251, 14.275739029498311]}}, {"type": "Feature", "properties": {"norad_id": 35446, "name": "COSMOS 2251 DEB", "group": "cosmos-2251-debris", "lat": 41.45877193858933, "lon": 133.49460579749464, "alt_km": 671.7252139022157, "timestamp": "2025-12-07T11:27:50.403241+00:00", "meta": {"OBJECT_NAME": "COSMOS 2251 DEB", "OBJECT_ID": "1993-036AKQ", "EPOCH": "2025-12-05T17:34:52.262112", "MEAN_MOTION": 14.54618421, "ECCENTRICITY": 0.00744002, "INCLINATION": 74.0466, "RA_OF_ASC_NODE": 331.4309, "ARG_OF_PERICENTER": 91.6694, "MEAN_ANOMALY": 269.2992, "EPHEMERIS_TYPE": 0, "CLASSIFICATION_TYPE": "U", "NORAD_CAT_ID": 35446, "ELEMENT_SET_NO": 999, "REV_AT_EPOCH": 87906, "BSTAR": 0.00018901942, "MEAN_MOTION_DOT": 8.08e-06, "MEAN_MOTION_DDOT": 0}, "tle": {"line1": "1 35446U 93036AKQ 25339.73254933  .00000808  00000+0  18902-3 0  9999", "line2": "2 35446  74.0466 331.4309 0074400  91.6694 269.2992 14.54618421879069"}}, "geometry": {"type": "Point", "coordinates": [133.49460579749464, 41.45877193858933]}}, {"type": "Feature", "properties": {"norad_id": 35448, "name": "COSMOS 2251 DEB", "group": "cosmos-2251-debris", "lat": 1.9519300177998444, "lon": 100.10309929126879, "alt_km": 713.3298863353557, "timestamp": "2025-12-07T11:27:50.403267+00:00", "meta": {"OBJECT_NAME": "COSMOS 2251 DEB", "OBJECT_ID": "1993-036AKS", "EPOCH": "2025-12-05T14:52:31.418112", "MEAN_MOTION": 14.54160371, "ECCENTRICITY": 0.00112149, "INCLINATION": 73.9027, "RA_OF_ASC_NODE": 103.0785, "ARG_OF_PERICENTER": 283.351, "MEAN_ANOMALY": 76.6401, "EPHEMERIS_TYPE": 0, "CLASSIFICATION_TYPE": "U", "NORAD_CAT_ID": 35448, "ELEMENT_SET_NO": 999, "REV_AT_EPOCH": 87231, "BSTAR": 0.0022626974, "MEAN_MOTION_DOT": 9.564e-05, "MEAN_MOTION_DDOT": 0}, "tle": {"line1": "1 35448U 93036AKS 25339.61980808  .00009564  00000+0  22627-2 0  9991", "line2": "2 35448  73.9027 103.0785 0011214 283.3510  76.6401 14.54160371872316"}}, "geometry": {"type": "Point", "coordinates": [100.10309929126879, 1.9519300177998444]}}, {"type": "Feature", "properties": {"norad_id": 35451, "name": "COSMOS 2251 DEB", "group": "cosmos-2251-debris", "lat": -63.71326612136858, "lon": 78.32911736810043, "alt_km": 458.70234998679825, "timestamp": "2025-12-07T11:27:50.403279+00:00", "meta": {"OBJECT_NAME": "COSMOS 2251 DEB", "OBJECT_ID": "1993-036AKV", "EPOCH": "2025-12-06T15:25:27.582240", "MEAN_MOTION": 15.34695417, "ECCENTRICITY": 0.00402272, "INCLINATION": 73.932, "RA_OF_ASC_NODE": 115.8295, "ARG_OF_PERICENTER": 3.0186, "MEAN_ANOMALY": 357.1253, "EPHEMERIS_TYPE": 0, "CLASSIFICATION_TYPE": "U", "NORAD_CAT_ID": 35451, "ELEMENT_SET_NO": 999, "REV_AT_EPOCH": 67312, "BSTAR": 0.0023728301, "MEAN_MOTION_DOT": 0.00082777, "MEAN_MOTION_DDOT": 0}, "tle": {"line1": "1 35451U 93036AKV 25340.64268035  .00082777  00000+0  23728-2 0  9991", "line2": "2 35451  73.9320 115.8295 0040227   3.0186 357.1253 15.34695417673128"}}, "geometry": {"type": "Point", "coordinates": [78.32911736810043, -63.71326612136858]}}, {"type": "Feature", "properties": {"norad_id": 35453, "name": "COSMOS 2251 DEB", "group": "cosmos-2251-debris", "lat": 2.4219739859362512, "lon": 30.78048277539086, "alt_km": 813.9738551070313, "timestamp": "2025-12-07T11:27:50.403290+00:00", "meta": {"OBJECT_NAME": "COSMOS 2251 DEB", "OBJECT_ID": "1993-036AKX", "EPOCH": "2025-12-02T12:53:58.122528", "MEAN_MOTION": 14.3790654, "ECCENTRICITY": 0.00680216, "INCLINATION": 74.0102, "RA_OF_ASC_NODE": 39.1945, "ARG_OF_PERICENTER": 175.6131, "MEAN_ANOMALY": 184.5634, "EPHEMERIS_TYPE": 0, "CLASSIFICATION_TYPE": "U", "NORAD_CAT_ID": 35453, "ELEMENT_SET_NO": 999, "REV_AT_EPOCH": 86072, "BSTAR": 0.00098540606, "MEAN_MOTION_DOT": 3.03e-05, "MEAN_MOTION_DDOT": 0}, "tle": {"line1": "1 35453U 93036AKX 25336.53747827  .00003030  00000+0  98541-3 0  9998", "line2": "2 35453  74.0102  39.1945 0068021 175.6131 184.5634 14.37906540860721"}}, "geometry": {"type": "Point", "coordinates": [30.78048277539086, 2.4219739859362512]}}, {"type": "Feature", "properties": {"norad_id": 35455, "name": "COSMOS 2251 DEB", "group": "cosmos-2251-debris", "lat": -0.582888751337839, "lon": -55.484232391582474, "alt_km": 685.0991970120958, "timestamp": "2025-12-07T11:27:50.403301+00:00", "meta": {"OBJECT_NAME": "COSMOS 2251 DEB", "OBJECT_ID": "1993-036AKZ", "EPOCH": "2025-12-05T08:06:37.888128", "MEAN_MOTION": 14.49263122, "ECCENTRICITY": 0.0098804, "INCLINATION": 74.0283, "RA_OF_ASC_NODE": 308.6971, "ARG_OF_PERICENTER": 54.0721, "MEAN_ANOMALY": 306.9556, "EPHEMERIS_TYPE": 0, "CLASSIFICATION_TYPE": "U", "NORAD_CAT_ID": 35455, "ELEMENT_SET_NO": 999, "REV_AT_EPOCH": 86436, "BSTAR": 0.0027436802, "MEAN_MOTION_DOT": 0.00011124, "MEAN_MOTION_DDOT": 0}, "tle": {"line1": "1 35455U 93036AKZ 25339.33793852  .00011124  00000+0  27437-2 0  9998", "line2": "2 35455  74.0283 308.6971 0098804  54.0721 306.9556 14.49263122864365"}}, "geometry": {"type": "Point", "coordinates": [-55.484232391582474, -0.582888751337839]}}, {"type": "Feature", "properties": {"norad_id": 35456, "name": "COSMOS 2251 DEB", "group": "cosmos-2251-debris", "lat": -16.28046036491781, "lon": 122.8982261870774, "alt_km": 622.0650246734494, "timestamp": "2025-12-07T11:27:50.403311+00:00", "meta": {"OBJECT_NAME": "COSMOS 2251 DEB", "OBJECT_ID": "1993-036ALA", "EPOCH": "2025-12-04T18:10:25.054752", "MEAN_MOTION": 14.69179998, "ECCENTRICITY": 0.00651966, "INCLINATION": 73.9491, "RA_OF_ASC_NODE": 133.0155, "ARG_OF_PERICENTER": 344.6308, "MEAN_ANOMALY": 15.288, "EPHEMERIS_TYPE": 0, "CLASSIFICATION_TYPE": "U", "NORAD_CAT_ID": 35456, "ELEMENT_SET_NO": 999, "REV_AT_EPOCH": 65758, "BSTAR": 0.003747315, "MEAN_MOTION_DOT": 0.00022831, "MEAN_MOTION_DDOT": 0}, "tle": {"line1": "1 35456U 93036ALA 25338.75723443  .00022831  00000+0  37473-2 0  9991", "line2": "2 35456  73.9491 133.0155 0065196 344.6308  15.2880 14.69179998657589"}}, "geometry": {"type": "Point", "coordinates": [122.8982261870774, -16.28046036491781]}}]}